{
  "type": "FeatureCollection",
  "features": [
    {
      "type": "Feature",
      "properties": {
        "norad_id": 2807,
        "name": "OPS 7218 (TRANSIT 16)",
        "group": "nnss",
        "lat": 13.301240095860503,
        "lon": -5.795815655511556,
        "alt_km": 1076.0776618183954,
        "timestamp": "2025-12-09T09:46:47.913822+00:00",
        "meta_object_name": "OPS 7218 (TRANSIT 16)",
        "meta_object_id": "1967-048A",
        "meta_epoch": "2025-12-09T01:05:23.708256",
        "meta_mean_motion": 13.5072118,
        "meta_eccentricity": 0.0021798,
        "meta_inclination": 89.6731,
        "meta_ra_of_asc_node": 354.1388,
        "meta_arg_of_pericenter": 123.9796,
        "meta_mean_anomaly": 290.0379,
        "meta_ephemeris_type": 0,
        "meta_classification_type": "U",
        "meta_norad_cat_id": 2807,
        "meta_element_set_no": 999,
        "meta_rev_at_epoch": 88226,
        "meta_bstar": 0.00020521,
        "meta_mean_motion_dot": 1.43e-06,
        "meta_mean_motion_ddot": 0,
        "tle_line1": "1 02807U 67048A   25343.04541329  .00000143  00000+0  20521-3 0  9997",
        "tle_line2": "2 02807  89.6731 354.1388 0021798 123.9796 290.0379 13.50721180882263"
      },
      "geometry": {
        "type": "Point",
        "coordinates": [
          -5.795815655511556,
          13.301240095860503
        ]
      }
    },
    {
      "type": "Feature",
      "properties": {
        "norad_id": 2965,
        "name": "OPS 4947 (TRANSIT 17)",
        "group": "nnss",
        "lat": 45.50231892455469,
        "lon": 25.453799224271155,
        "alt_km": 1088.0440997422384,
        "timestamp": "2025-12-09T09:46:47.913844+00:00",
        "meta_object_name": "OPS 4947 (TRANSIT 17)",
        "meta_object_id": "1967-092A",
        "meta_epoch": "2025-12-09T04:32:40.270272",
        "meta_mean_motion": 13.53452129,
        "meta_eccentricity": 0.0045987,
        "meta_inclination": 89.2499,
        "meta_ra_of_asc_node": 24.7065,
        "meta_arg_of_pericenter": 245.1537,
        "meta_mean_anomaly": 177.9997,
        "meta_ephemeris_type": 0,
        "meta_classification_type": "U",
        "meta_norad_cat_id": 2965,
        "meta_element_set_no": 999,
        "meta_rev_at_epoch": 87049,
        "meta_bstar": 0.00022948,
        "meta_mean_motion_dot": 1.66e-06,
        "meta_mean_motion_ddot": 0,
        "tle_line1": "1 02965U 67092A   25343.18935498  .00000166  00000+0  22948-3 0  9990",
        "tle_line2": "2 02965  89.2499  24.7065 0045987 245.1537 177.9997 13.53452129870491"
      },
      "geometry": {
        "type": "Point",
        "coordinates": [
          25.453799224271155,
          45.50231892455469
        ]
      }
    },
    {
      "type": "Feature",
      "properties": {
        "norad_id": 3133,
        "name": "OPS 7034 (TRANSIT 18)",
        "group": "nnss",
        "lat": -37.843566710890556,
        "lon": 93.6078807409895,
        "alt_km": 1030.2238704254978,
        "timestamp": "2025-12-09T09:46:47.913859+00:00",
        "meta_object_name": "OPS 7034 (TRANSIT 18)",
        "meta_object_id": "1968-012A",
        "meta_epoch": "2025-12-08T20:34:01.224768",
        "meta_mean_motion": 13.51564436,
        "meta_eccentricity": 0.00734771,
        "meta_inclination": 90.0276,
        "meta_ra_of_asc_node": 273.6278,
        "meta_arg_of_pericenter": 180.4121,
        "meta_mean_anomaly": 239.6766,
        "meta_ephemeris_type": 0,
        "meta_classification_type": "U",
        "meta_norad_cat_id": 3133,
        "meta_element_set_no": 999,
        "meta_rev_at_epoch": 56866,
        "meta_bstar": 0.00029762797,
        "meta_mean_motion_dot": 2.07e-06,
        "meta_mean_motion_ddot": 0,
        "tle_line1": "1 03133U 68012A   25342.85695862  .00000207  00000+0  29763-3 0  9990",
        "tle_line2": "2 03133  90.0276 273.6278 0073477 180.4121 239.6766 13.51564436568664"
      },
      "geometry": {
        "type": "Point",
        "coordinates": [
          93.6078807409895,
          -37.843566710890556
        ]
      }
    },
    {
      "type": "Feature",
      "properties": {
        "norad_id": 4507,
        "name": "NNSS 19 (TRANSIT 19)",
        "group": "nnss",
        "lat": -9.999184782982613,
        "lon": 54.53053063702509,
        "alt_km": 1119.9341881055325,
        "timestamp": "2025-12-09T09:46:47.913871+00:00",
        "meta_object_name": "NNSS 19 (TRANSIT 19)",
        "meta_object_id": "1970-067A",
        "meta_epoch": "2025-12-08T23:56:26.901312",
        "meta_mean_motion": 13.51313694,
        "meta_eccentricity": 0.01707761,
        "meta_inclination": 90.0057,
        "meta_ra_of_asc_node": 234.5313,
        "meta_arg_of_pericenter": 304.3138,
        "meta_mean_anomaly": 54.195,
        "meta_ephemeris_type": 0,
        "meta_classification_type": "U",
        "meta_norad_cat_id": 4507,
        "meta_element_set_no": 999,
        "meta_rev_at_epoch": 72171,
        "meta_bstar": 0.00029264395,
        "meta_mean_motion_dot": 2.16e-06,
        "meta_mean_motion_ddot": 0,
        "tle_line1": "1 04507U 70067A   25342.99753358  .00000216  00000+0  29264-3 0  9995",
        "tle_line2": "2 04507  90.0057 234.5313 0170776 304.3138  54.1950 13.51313694721718"
      },
      "geometry": {
        "type": "Point",
        "coordinates": [
          54.53053063702509,
          -9.999184782982613
        ]
      }
    },
    {
      "type": "Feature",
      "properties": {
        "norad_id": 6909,
        "name": "NNSS 20 (TRANSIT 20)",
        "group": "nnss",
        "lat": 21.600056910676415,
        "lon": -104.83898887910433,
        "alt_km": 946.6421461915106,
        "timestamp": "2025-12-09T09:46:47.913883+00:00",
        "meta_object_name": "NNSS 20 (TRANSIT 20)",
        "meta_object_id": "1973-081A",
        "meta_epoch": "2025-12-09T04:25:21.173376",
        "meta_mean_motion": 13.7143159,
        "meta_eccentricity": 0.0156609,
        "meta_inclination": 89.8562,
        "meta_ra_of_asc_node": 255.1074,
        "meta_arg_of_pericenter": 88.8414,
        "meta_mean_anomaly": 273.0686,
        "meta_ephemeris_type": 0,
        "meta_classification_type": "U",
        "meta_norad_cat_id": 6909,
        "meta_element_set_no": 999,
        "meta_rev_at_epoch": 80312,
        "meta_bstar": 0.00032094,
        "meta_mean_motion_dot": 3.27e-06,
        "meta_mean_motion_ddot": 0,
        "tle_line1": "1 06909U 73081A   25343.18427284  .00000327  00000+0  32094-3 0  9998",
        "tle_line2": "2 06909  89.8562 255.1074 0156609  88.8414 273.0686 13.71431590803128"
      },
      "geometry": {
        "type": "Point",
        "coordinates": [
          -104.83898887910433,
          21.600056910676415
        ]
      }
    },
    {
      "type": "Feature",
      "properties": {
        "norad_id": 10457,
        "name": "TRANSAT",
        "group": "nnss",
        "lat": -45.28724349463668,
        "lon": -100.92937409651566,
        "alt_km": 1066.1371596277904,
        "timestamp": "2025-12-09T09:46:47.913895+00:00",
        "meta_object_name": "TRANSAT",
        "meta_object_id": "1977-106A",
        "meta_epoch": "2025-12-08T20:48:25.255872",
        "meta_mean_motion": 13.48942788,
        "meta_eccentricity": 0.00250257,
        "meta_inclination": 89.6481,
        "meta_ra_of_asc_node": 78.7341,
        "meta_arg_of_pericenter": 200.8662,
        "meta_mean_anomaly": 280.8023,
        "meta_ephemeris_type": 0,
        "meta_classification_type": "U",
        "meta_norad_cat_id": 10457,
        "meta_element_set_no": 999,
        "meta_rev_at_epoch": 36691,
        "meta_bstar": 0.00022884886,
        "meta_mean_motion_dot": 1.54e-06,
        "meta_mean_motion_ddot": 0,
        "tle_line1": "1 10457U 77106A   25342.86695898  .00000154  00000+0  22885-3 0  9990",
        "tle_line2": "2 10457  89.6481  78.7341 0025025 200.8662 280.8023 13.48942788366915"
      },
      "geometry": {
        "type": "Point",
        "coordinates": [
          -100.92937409651566,
          -45.28724349463668
        ]
      }
    },
    {
      "type": "Feature",
      "properties": {
        "norad_id": 12458,
        "name": "NOVA 1",
        "group": "nnss",
        "lat": 73.92699378258501,
        "lon": 91.94479542854194,
        "alt_km": 1155.862295717413,
        "timestamp": "2025-12-09T09:46:47.913906+00:00",
        "meta_object_name": "NOVA 1",
        "meta_object_id": "1981-044A",
        "meta_epoch": "2025-12-08T21:17:39.461856",
        "meta_mean_motion": 13.23277871,
        "meta_eccentricity": 0.00157974,
        "meta_inclination": 89.8524,
        "meta_ra_of_asc_node": 91.4396,
        "meta_arg_of_pericenter": 113.4521,
        "meta_mean_anomaly": 3.7468,
        "meta_ephemeris_type": 0,
        "meta_classification_type": "U",
        "meta_norad_cat_id": 12458,
        "meta_element_set_no": 999,
        "meta_rev_at_epoch": 15135,
        "meta_bstar": 0.0002470035,
        "meta_mean_motion_dot": 1.14e-06,
        "meta_mean_motion_ddot": 0,
        "tle_line1": "1 12458U 81044A   25342.88726229  .00000114  00000+0  24700-3 0  9998",
        "tle_line2": "2 12458  89.8524  91.4396 0015797 113.4521   3.7468 13.23277871151350"
      },
      "geometry": {
        "type": "Point",
        "coordinates": [
          91.94479542854194,
          73.92699378258501
        ]
      }
    }
  ]
}